[
    {
        "Altitude(m)": 565800.9171268924,
        "Argument of Periapsis(deg)": 0.026491964442854003,
        "Eccentricity": 0.0,
        "Inclination(deg)": 53.0,
        "Latitude(deg)": -38.25670608830241,
        "Longitude(deg)": -144.40842935952443,
        "Mean Anomaly(deg)": -50.54262852968965,
        "RAAN(deg)": 354.9605734741121,
        "Satellite Name": "Starlink Shell 1 1578",
        "Satellite Number": 1578,
        "Semi-Major Axis(m)": 6931778.249405717,
        "Time(s)": 760
    },
    {
        "Altitude(m)": 565634.1771615116,
        "Argument of Periapsis(deg)": 0.02684054292236524,
        "Eccentricity": 0.0,
        "Inclination(deg)": 53.0,
        "Latitude(deg)": -37.85112115661664,
        "Longitude(deg)": -143.84536748293178,
        "Mean Anomaly(deg)": -49.915797326133,
        "RAAN(deg)": 354.9600547040346,
        "Satellite Name": "Starlink Shell 1 1578",
        "Satellite Number": 1578,
        "Semi-Major Axis(m)": 6931778.249405717,
        "Time(s)": 770
    },
    {
        "Altitude(m)": 565466.401328062,
        "Argument of Periapsis(deg)": 0.027189121401876473,
        "Eccentricity": 0.0,
        "Inclination(deg)": 53.0,
        "Latitude(deg)": -37.44243022365198,
        "Longitude(deg)": -143.2888948445207,
        "Mean Anomaly(deg)": -49.288966122576156,
        "RAAN(deg)": 354.9595359339571,
        "Satellite Name": "Starlink Shell 1 1578",
        "Satellite Number": 1578,
        "Semi-Major Axis(m)": 6931778.249405717,
        "Time(s)": 780
    },
    {
        "Altitude(m)": 565297.6544748661,
        "Argument of Periapsis(deg)": 0.02753769988138771,
        "Eccentricity": 0.0,
        "Inclination(deg)": 53.0,
        "Latitude(deg)": -37.030710115400566,
        "Longitude(deg)": -142.73889189847023,
        "Mean Anomaly(deg)": -48.66213491901946,
        "RAAN(deg)": 354.95901716387965,
        "Satellite Name": "Starlink Shell 1 1578",
        "Satellite Number": 1578,
        "Semi-Major Axis(m)": 6931778.249405717,
        "Time(s)": 790
    },
    {
        "Altitude(m)": 565128.0017380489,
        "Argument of Periapsis(deg)": 0.02788627836089895,
        "Eccentricity": 0.0,
        "Inclination(deg)": 53.0,
        "Latitude(deg)": -36.61603597514989,
        "Longitude(deg)": -142.19523969205036,
        "Mean Anomaly(deg)": -48.03530371546282,
        "RAAN(deg)": 354.9584983938022,
        "Satellite Name": "Starlink Shell 1 1578",
        "Satellite Number": 1578,
        "Semi-Major Axis(m)": 6931778.249405717,
        "Time(s)": 800
    },
    {
        "Altitude(m)": 564957.5085125455,
        "Argument of Periapsis(deg)": 0.02823485684041019,
        "Eccentricity": 0.0,
        "Inclination(deg)": 53.0,
        "Latitude(deg)": -36.19848129005549,
        "Longitude(deg)": -141.65781950146024,
        "Mean Anomaly(deg)": -47.40847251190607,
        "RAAN(deg)": 354.9579796237247,
        "Satellite Name": "Starlink Shell 1 1578",
        "Satellite Number": 1578,
        "Semi-Major Axis(m)": 6931778.249405717,
        "Time(s)": 810
    },
    {
        "Altitude(m)": 564786.2404229721,
        "Argument of Periapsis(deg)": 0.028583435319921423,
        "Eccentricity": 0.0,
        "Inclination(deg)": 53.0,
        "Latitude(deg)": -35.77811791893492,
        "Longitude(deg)": -141.1265124561392,
        "Mean Anomaly(deg)": -46.78164130834932,
        "RAAN(deg)": 354.9574608536472,
        "Satellite Name": "Starlink Shell 1 1578",
        "Satellite Number": 1578,
        "Semi-Major Axis(m)": 6931778.249405717,
        "Time(s)": 820
    },
    {
        "Altitude(m)": 564614.2632943701,
        "Argument of Periapsis(deg)": 0.028932013799432665,
        "Eccentricity": 0.0,
        "Inclination(deg)": 53.0,
        "Latitude(deg)": -35.35501612110815,
        "Longitude(deg)": -140.6012006650109,
        "Mean Anomaly(deg)": -46.154810104792624,
        "RAAN(deg)": 354.95694208356974,
        "Satellite Name": "Starlink Shell 1 1578",
        "Satellite Number": 1578,
        "Semi-Major Axis(m)": 6931778.249405717,
        "Time(s)": 830
    },
    {
        "Altitude(m)": 564441.6431228739,
        "Argument of Periapsis(deg)": 0.029280592278943897,
        "Eccentricity": 0.0,
        "Inclination(deg)": 53.0,
        "Latitude(deg)": -34.92924458612919,
        "Longitude(deg)": -140.08176681948956,
        "Mean Anomaly(deg)": -45.52797890123598,
        "RAAN(deg)": 354.95642331349234,
        "Satellite Name": "Starlink Shell 1 1578",
        "Satellite Number": 1578,
        "Semi-Major Axis(m)": 6931778.249405717,
        "Time(s)": 840
    },
    {
        "Altitude(m)": 564268.4460462373,
        "Argument of Periapsis(deg)": 0.029629170758455132,
        "Eccentricity": 0.0,
        "Inclination(deg)": 53.0,
        "Latitude(deg)": -34.50087046425878,
        "Longitude(deg)": -139.56809378668757,
        "Mean Anomaly(deg)": -44.901147697679136,
        "RAAN(deg)": 354.9559045434148,
        "Satellite Name": "Starlink Shell 1 1578",
        "Satellite Number": 1578,
        "Semi-Major Axis(m)": 6931778.249405717,
        "Time(s)": 850
    },
    {
        "Altitude(m)": 564094.7383143336,
        "Argument of Periapsis(deg)": 0.02997774923796637,
        "Eccentricity": 0.0,
        "Inclination(deg)": 53.0,
        "Latitude(deg)": -34.069959397540046,
        "Longitude(deg)": -139.06006587434413,
        "Mean Anomaly(deg)": -44.27431649412244,
        "RAAN(deg)": 354.9553857733373,
        "Satellite Name": "Starlink Shell 1 1578",
        "Satellite Number": 1578,
        "Semi-Major Axis(m)": 6931778.249405717,
        "Time(s)": 860
    },
    {
        "Altitude(m)": 563920.5862595586,
        "Argument of Periapsis(deg)": 0.030326327717477602,
        "Eccentricity": 0.0,
        "Inclination(deg)": 53.0,
        "Latitude(deg)": -33.63657555135578,
        "Longitude(deg)": -138.55756756557804,
        "Mean Anomaly(deg)": -43.64748529056585,
        "RAAN(deg)": 354.9548670032599,
        "Satellite Name": "Starlink Shell 1 1578",
        "Satellite Number": 1578,
        "Semi-Major Axis(m)": 6931778.249405717,
        "Time(s)": 870
    },
    {
        "Altitude(m)": 563746.0562671876,
        "Argument of Periapsis(deg)": 0.030674906196988847,
        "Eccentricity": 0.0,
        "Inclination(deg)": 53.0,
        "Latitude(deg)": -33.20078164634813,
        "Longitude(deg)": -138.0604847668987,
        "Mean Anomaly(deg)": -43.02065408700905,
        "RAAN(deg)": 354.95434823318243,
        "Satellite Name": "Starlink Shell 1 1578",
        "Satellite Number": 1578,
        "Semi-Major Axis(m)": 6931778.249405717,
        "Time(s)": 880
    },
    {
        "Altitude(m)": 563571.2147457142,
        "Argument of Periapsis(deg)": 0.031023484676500086,
        "Eccentricity": 0.0,
        "Inclination(deg)": 53.0,
        "Latitude(deg)": -32.76263899059995,
        "Longitude(deg)": -137.56870436754033,
        "Mean Anomaly(deg)": -42.39382288345235,
        "RAAN(deg)": 354.9538294631049,
        "Satellite Name": "Starlink Shell 1 1578",
        "Satellite Number": 1578,
        "Semi-Major Axis(m)": 6931778.249405717,
        "Time(s)": 890
    },
    {
        "Altitude(m)": 563396.1280971406,
        "Argument of Periapsis(deg)": 0.03137206315601132,
        "Eccentricity": 0.0,
        "Inclination(deg)": 53.0,
        "Latitude(deg)": -32.3222075119797,
        "Longitude(deg)": -137.0821137915707,
        "Mean Anomaly(deg)": -41.76699167989566,
        "RAAN(deg)": 354.95331069302745,
        "Satellite Name": "Starlink Shell 1 1578",
        "Satellite Number": 1578,
        "Semi-Major Axis(m)": 6931778.249405717,
        "Time(s)": 900
    },
    {
        "Altitude(m)": 563220.8626872641,
        "Argument of Periapsis(deg)": 0.03172064163552255,
        "Eccentricity": 0.0,
        "Inclination(deg)": 53.0,
        "Latitude(deg)": -31.87954579056152,
        "Longitude(deg)": -136.60060205610867,
        "Mean Anomaly(deg)": -41.14016047633896,
        "RAAN(deg)": 354.95279192295,
        "Satellite Name": "Starlink Shell 1 1578",
        "Satellite Number": 1578,
        "Semi-Major Axis(m)": 6931778.249405717,
        "Time(s)": 910
    },
    {
        "Altitude(m)": 563045.4848159914,
        "Argument of Periapsis(deg)": 0.0320692201150338,
        "Eccentricity": 0.0,
        "Inclination(deg)": 53.0,
        "Latitude(deg)": -31.434711091045237,
        "Longitude(deg)": -136.12405931033888,
        "Mean Anomaly(deg)": -40.51332927278221,
        "RAAN(deg)": 354.9522731528725,
        "Satellite Name": "Starlink Shell 1 1578",
        "Satellite Number": 1578,
        "Semi-Major Axis(m)": 6931778.249405717,
        "Time(s)": 920
    },
    {
        "Altitude(m)": 562870.0606876315,
        "Argument of Periapsis(deg)": 0.032417798594545036,
        "Eccentricity": 0.0,
        "Inclination(deg)": 53.0,
        "Latitude(deg)": -30.987759395103847,
        "Longitude(deg)": -135.6523763686193,
        "Mean Anomaly(deg)": -39.88649806922547,
        "RAAN(deg)": 354.95175438279506,
        "Satellite Name": "Starlink Shell 1 1578",
        "Satellite Number": 1578,
        "Semi-Major Axis(m)": 6931778.249405717,
        "Time(s)": 930
    },
    {
        "Altitude(m)": 562694.6563812753,
        "Argument of Periapsis(deg)": 0.03276637707405627,
        "Eccentricity": 0.0,
        "Inclination(deg)": 53.0,
        "Latitude(deg)": -30.53874543359106,
        "Longitude(deg)": -135.18544575095487,
        "Mean Anomaly(deg)": -39.25966686566877,
        "RAAN(deg)": 354.95123561271754,
        "Satellite Name": "Starlink Shell 1 1578",
        "Satellite Number": 1578,
        "Semi-Major Axis(m)": 6931778.249405717,
        "Time(s)": 940
    }
]